[{"OBJECT_NAME":"HAWK-12C","OBJECT_ID":"2025-138A","EPOCH":"2026-03-09T22:54:55.356768","MEAN_MOTION":15.17353041,"ECCENTRICITY":0.00157924,"INCLINATION":97.4363,"RA_OF_ASC_NODE":73.1446,"ARG_OF_PERICENTER":124.4693,"MEAN_ANOMALY":235.8035,"EPHEMERIS_TYPE":0,"CLASSIFICATION_TYPE":"U","NORAD_CAT_ID":64621,"ELEMENT_SET_NO":999,"REV_AT_EPOCH":3881,"BSTAR":0.00031482945,"MEAN_MOTION_DOT":6.237e-5,"MEAN_MOTION_DDOT":0},{"OBJECT_NAME":"OBJECT E","OBJECT_ID":"2019-079E","EPOCH":"2026-03-09T23:32:16.414656","MEAN_MOTION":14.8535198,"ECCENTRICITY":0.01693653,"INCLINATION":97.6675,"RA_OF_ASC_NODE":77.1091,"ARG_OF_PERICENTER":315.2861,"MEAN_ANOMALY":43.4802,"EPHEMERIS_TYPE":0,"CLASSIFICATION_TYPE":"U","NORAD_CAT_ID":45915,"ELEMENT_SET_NO":999,"REV_AT_EPOCH":30492,"BSTAR":0.00041459103,"MEAN_MOTION_DOT":4.556e-5,"MEAN_MOTION_DDOT":0}]
